OBJECT_NAME,OBJECT_ID,EPOCH,MEAN_MOTION,ECCENTRICITY,INCLINATION,RA_OF_ASC_NODE,ARG_OF_PERICENTER,MEAN_ANOMALY,EPHEMERIS_TYPE,CLASSIFICATION_TYPE,NORAD_CAT_ID,ELEMENT_SET_NO,REV_AT_EPOCH,BSTAR,MEAN_MOTION_DOT,MEAN_MOTION_DDOT
IRIDIUM 138,2017-083B,2026-07-14T21:00:03.093120,14.34218577,.0002054,86.3999,310.1412,91.8466,268.2965,0,U,43071,999,44810,.41507E-4,.136E-5,0
IRIDIUM 116,2017-083C,2026-07-14T20:14:23.078688,14.34217711,.00024431,86.3985,310.4404,98.6620,261.4852,0,U,43072,999,44813,.38542333E-4,.128E-5,0
IRIDIUM 130,2017-083D,2026-07-15T05:31:31.408032,14.34217962,.0002258,86.3992,310.5567,100.4656,259.6794,0,U,43073,999,44813,.41425E-4,.136E-5,0
IRIDIUM 151,2017-083E,2026-07-14T20:32:39.224256,14.34218120,.00022391,86.3986,310.4935,95.1945,264.9507,0,U,43074,999,44810,.41711586E-4,.137E-5,0
IRIDIUM 134,2017-083F,2026-07-14T19:46:59.200320,14.34218054,.00022092,86.3988,310.5152,95.1934,264.9514,0,U,43075,999,44806,.22126017E-4,.82E-6,0
IRIDIUM 137,2017-083G,2026-07-14T20:05:15.269856,14.34218388,.0002683,86.3990,310.6033,93.1369,267.0134,0,U,43076,999,44813,.34295899E-4,.116E-5,0
IRIDIUM 141,2017-083H,2026-07-14T19:56:07.157760,14.34217662,.00021729,86.3985,310.4349,93.1842,266.9603,0,U,43077,999,44813,.20538551E-4,.77E-6,0
IRIDIUM 153,2017-083J,2026-07-15T04:50:03.400800,14.34217892,.0002115,86.3959,278.7592,94.4881,265.6556,0,U,43078,999,44929,.18434E-4,.71E-6,0
IRIDIUM 131,2017-083K,2026-07-14T19:37:51.193632,14.34218250,.00021994,86.3990,310.6280,93.5636,266.5811,0,U,43079,999,44806,.24943722E-4,.9E-6,0
IRIDIUM 144,2018-030A,2026-07-15T04:59:11.431680,14.34217922,.0002382,86.3957,278.6850,96.9076,263.2391,0,U,43249,999,43415,.16352E-4,.66E-6,0
IRIDIUM 149,2018-030B,2026-07-15T05:08:19.442688,14.34218068,.000226,86.3957,278.6490,93.1469,266.9985,0,U,43250,999,43417,.28494E-4,.1E-5,0
IRIDIUM 157,2018-030C,2026-07-15T05:35:43.641600,14.34218060,.0002254,86.3960,278.6951,94.2199,265.9254,0,U,43251,999,43415,.43165E-4,.141E-5,0
IRIDIUM 140,2018-030D,2026-07-15T04:22:39.656352,14.34217667,.0002236,86.3958,278.7288,95.7608,264.3843,0,U,43252,999,43420,.46104E-4,.149E-5,0
IRIDIUM 145,2018-030E,2026-07-15T04:04:23.390688,14.34217443,.0002538,86.3957,278.7061,100.4826,259.6655,0,U,43253,999,43413,.34556E-4,.117E-5,0
IRIDIUM 146,2018-030F,2026-07-15T03:36:59.425056,14.34217599,.000237,86.3959,278.7264,96.3937,263.7529,0,U,43254,999,43414,.18311E-4,.71E-6,0
IRIDIUM 148,2018-030G,2026-07-15T04:31:47.701056,14.34218026,.0002337,86.3960,278.7538,93.4085,266.7379,0,U,43255,999,43418,.44157E-4,.143E-5,0
IRIDIUM 142,2018-030H,2026-07-15T05:26:35.471616,14.34217987,.000244,86.3954,278.6259,96.9402,263.2071,0,U,43256,999,43415,.22655E-4,.83E-6,0
IRIDIUM 150,2018-030J,2026-07-15T04:40:55.305984,14.34216004,.0002169,86.3956,278.7566,95.4767,264.6676,0,U,43257,999,43417,-.71753E-4,-.181E-5,0
IRIDIUM 143,2018-030K,2026-07-15T04:13:31.533024,14.34217497,.0002329,86.3962,278.8579,97.4419,262.7041,0,U,43258,999,43410,.19591E-4,.75E-6,0
IRIDIUM 161,2018-047C,2026-07-15T04:17:15.061056,14.43275694,.0002265,86.4462,76.7652,80.7989,279.3468,0,U,43478,999,42917,.40362E-4,.156E-5,0
IRIDIUM 152,2018-047D,2026-07-15T03:34:14.367360,14.34218388,.0002164,86.3936,76.6390,83.7321,276.4121,0,U,43479,999,42649,.43749E-4,.142E-5,0
IRIDIUM 147,2018-047E,2026-07-15T03:43:22.245312,14.34217314,.0002262,86.3939,76.6420,88.4126,271.7329,0,U,43480,999,42649,.23244E-4,.85E-6,0
IRIDIUM 110,2018-047F,2026-07-15T03:52:30.202752,14.34218629,.0002118,86.3941,76.7320,77.5222,282.6210,0,U,43481,999,42648,.48526E-4,.156E-5,0
IRIDIUM 162,2018-047G,2026-07-15T04:08:11.183424,14.43278508,.00022,86.4460,76.6584,86.9927,273.1526,0,U,43482,999,42916,.51639E-4,.194E-5,0
IRIDIUM 160,2018-061A,2026-07-15T02:34:30.408096,14.34217044,.0002234,86.3940,45.1185,86.8960,273.2491,0,U,43569,999,41737,.39202E-4,.13E-5,0
IRIDIUM 166,2018-061B,2026-07-15T03:11:02.503104,14.34217825,.0002275,86.3938,45.0581,89.7839,270.3618,0,U,43570,999,41740,.2662E-4,.94E-6,0
IRIDIUM 158,2018-061C,2026-07-15T02:25:22.459296,14.34217835,.0002072,86.3939,45.0812,86.5421,273.6011,0,U,43571,999,41736,.20376E-4,.77E-6,0
IRIDIUM 165,2018-061D,2026-07-15T03:01:54.517152,14.34217007,.0002172,86.3938,45.1171,91.2513,268.8932,0,U,43572,999,41739,.4033E-6,.21E-6,0
IRIDIUM 155,2018-061E,2026-07-15T02:07:06.450240,14.34217703,.0002101,86.3939,45.0015,88.8666,271.2771,0,U,43573,999,41735,.25831E-4,.92E-6,0
IRIDIUM 154,2018-061F,2026-07-15T01:39:42.450048,14.34217461,.0002295,86.3940,45.1443,90.6663,269.4796,0,U,43574,999,41740,.15744E-4,.64E-6,0
IRIDIUM 163,2018-061G,2026-07-15T02:52:46.487136,14.34217279,.0002107,86.3936,45.0373,85.6923,274.4513,0,U,43575,999,41738,.6962E-5,.39E-6,0
